{"type": "FeatureCollection", "features": [{"type": "Feature", "properties": {"norad_id": 22490, "name": "SCD 1", "group": "resource", "lat": 5.7038112881960465, "lon": -20.0007471417905, "alt_km": 756.2259734044592, "timestamp": "2025-12-04T19:33:59.287782+00:00", "meta": {"OBJECT_NAME": "SCD 1", "OBJECT_ID": "1993-009B", "EPOCH": "2025-12-04T06:46:56.038656", "MEAN_MOTION": 14.45989701, "ECCENTRICITY": 0.00417912, "INCLINATION": 24.9709, "RA_OF_ASC_NODE": 330.8926, "ARG_OF_PERICENTER": 235.0411, "MEAN_ANOMALY": 239.7639, "EPHEMERIS_TYPE": 0, "CLASSIFICATION_TYPE": "U", "NORAD_CAT_ID": 22490, "ELEMENT_SET_NO": 999, "REV_AT_EPOCH": 73287, "BSTAR": 0.00018100932, "MEAN_MOTION_DOT": 8.49e-06, "MEAN_MOTION_DDOT": 0}, "tle": {"line1": "1 22490U 93009B   25338.28259304  .00000849  00000+0  18101-3 0  9996", "line2": "2 22490  24.9709 330.8926 0041791 235.0411 239.7639 14.45989701732873"}}, "geometry": {"type": "Point", "coordinates": [-20.0007471417905, 5.7038112881960465]}}, {"type": "Feature", "properties": {"norad_id": 25397, "name": "TECHSAT 1B (GO-32)", "group": "resource", "lat": -56.174952077381995, "lon": 128.17716948380485, "alt_km": 819.1791483210627, "timestamp": "2025-12-04T19:33:59.287808+00:00", "meta": {"OBJECT_NAME": "TECHSAT 1B (GO-32)", "OBJECT_ID": "1998-043D", "EPOCH": "2025-12-03T22:13:32.295072", "MEAN_MOTION": 14.24373188, "ECCENTRICITY": 0.0002221, "INCLINATION": 98.9913, "RA_OF_ASC_NODE": 320.9351, "ARG_OF_PERICENTER": 71.8261, "MEAN_ANOMALY": 288.3159, "EPHEMERIS_TYPE": 0, "CLASSIFICATION_TYPE": "U", "NORAD_CAT_ID": 25397, "ELEMENT_SET_NO": 999, "REV_AT_EPOCH": 42353, "BSTAR": 0.00010215, "MEAN_MOTION_DOT": 1.9e-06, "MEAN_MOTION_DDOT": 0}, "tle": {"line1": "1 25397U 98043D   25337.92606823  .00000190  00000+0  10215-3 0  9997", "line2": "2 25397  98.9913 320.9351 0002221  71.8261 288.3159 14.24373188423536"}}, "geometry": {"type": "Point", "coordinates": [128.17716948380485, -56.174952077381995]}}, {"type": "Feature", "properties": {"norad_id": 25504, "name": "SCD 2", "group": "resource", "lat": 21.85541713977059, "lon": -109.81009283656134, "alt_km": 747.030179820933, "timestamp": "2025-12-04T19:33:59.287820+00:00", "meta": {"OBJECT_NAME": "SCD 2", "OBJECT_ID": "1998-060A", "EPOCH": "2025-12-03T07:34:14.746944", "MEAN_MOTION": 14.45414838, "ECCENTRICITY": 0.0016689, "INCLINATION": 24.9937, "RA_OF_ASC_NODE": 200.0088, "ARG_OF_PERICENTER": 212.8278, "MEAN_ANOMALY": 308.9112, "EPHEMERIS_TYPE": 0, "CLASSIFICATION_TYPE": "U", "NORAD_CAT_ID": 25504, "ELEMENT_SET_NO": 999, "REV_AT_EPOCH": 43195, "BSTAR": 0.00010911, "MEAN_MOTION_DOT": 5.73e-06, "MEAN_MOTION_DDOT": 0}, "tle": {"line1": "1 25504U 98060A   25337.31544846  .00000573  00000+0  10911-3 0  9993", "line2": "2 25504  24.9937 200.0088 0016689 212.8278 308.9112 14.45414838431958"}}, "geometry": {"type": "Point", "coordinates": [-109.81009283656134, 21.85541713977059]}}, {"type": "Feature", "properties": {"norad_id": 25757, "name": "DLR-TUBSAT", "group": "resource", "lat": 18.297512311877078, "lon": -39.80253468029443, "alt_km": 727.2729842271674, "timestamp": "2025-12-04T19:33:59.287830+00:00", "meta": {"OBJECT_NAME": "DLR-TUBSAT", "OBJECT_ID": "1999-029B", "EPOCH": "2025-12-03T21:59:10.893984", "MEAN_MOTION": 14.52352412, "ECCENTRICITY": 0.0013422, "INCLINATION": 98.6555, "RA_OF_ASC_NODE": 322.1579, "ARG_OF_PERICENTER": 220.596, "MEAN_ANOMALY": 139.4235, "EPHEMERIS_TYPE": 0, "CLASSIFICATION_TYPE": "U", "NORAD_CAT_ID": 25757, "ELEMENT_SET_NO": 999, "REV_AT_EPOCH": 40490, "BSTAR": 8.1828e-05, "MEAN_MOTION_DOT": 2.85e-06, "MEAN_MOTION_DDOT": 0}, "tle": {"line1": "1 25757U 99029B   25337.91609831  .00000285  00000+0  81828-4 0  9997", "line2": "2 25757  98.6555 322.1579 0013422 220.5960 139.4235 14.52352412404904"}}, "geometry": {"type": "Point", "coordinates": [-39.80253468029443, 18.297512311877078]}}, {"type": "Feature", "properties": {"norad_id": 25994, "name": "TERRA", "group": "resource", "lat": -18.193701228031696, "lon": -151.85111353590682, "alt_km": 694.9584894279496, "timestamp": "2025-12-04T19:33:59.287840+00:00", "meta": {"OBJECT_NAME": "TERRA", "OBJECT_ID": "1999-068A", "EPOCH": "2025-12-04T07:28:15.157056", "MEAN_MOTION": 14.60938149, "ECCENTRICITY": 0.00034353, "INCLINATION": 97.9761, "RA_OF_ASC_NODE": 30.3045, "ARG_OF_PERICENTER": 114.7985, "MEAN_ANOMALY": 314.3681, "EPHEMERIS_TYPE": 0, "CLASSIFICATION_TYPE": "U", "NORAD_CAT_ID": 25994, "ELEMENT_SET_NO": 999, "REV_AT_EPOCH": 38115, "BSTAR": 0.00022822242, "MEAN_MOTION_DOT": 1.073e-05, "MEAN_MOTION_DDOT": 0}, "tle": {"line1": "1 25994U 99068A   25338.31128654  .00001073  00000+0  22822-3 0  9991", "line2": "2 25994  97.9761  30.3045 0003435 114.7985 314.3681 14.60938149381154"}}, "geometry": {"type": "Point", "coordinates": [-151.85111353590682, -18.193701228031696]}}, {"type": "Feature", "properties": {"norad_id": 27004, "name": "MAROC-TUBSAT", "group": "resource", "lat": -66.83133549288868, "lon": -56.675548551726884, "alt_km": 993.9374862663044, "timestamp": "2025-12-04T19:33:59.287850+00:00", "meta": {"OBJECT_NAME": "MAROC-TUBSAT", "OBJECT_ID": "2001-056D", "EPOCH": "2025-12-04T08:11:25.416096", "MEAN_MOTION": 13.70252282, "ECCENTRICITY": 0.00190966, "INCLINATION": 99.7912, "RA_OF_ASC_NODE": 146.6392, "ARG_OF_PERICENTER": 282.5, "MEAN_ANOMALY": 149.4725, "EPHEMERIS_TYPE": 0, "CLASSIFICATION_TYPE": "U", "NORAD_CAT_ID": 27004, "ELEMENT_SET_NO": 999, "REV_AT_EPOCH": 19950, "BSTAR": 3.7447322e-05, "MEAN_MOTION_DOT": -1.4e-07, "MEAN_MOTION_DDOT": 0}, "tle": {"line1": "1 27004U 01056D   25338.34126639 -.00000014  00000+0  37447-4 0  9994", "line2": "2 27004  99.7912 146.6392 0019096 282.5000 149.4725 13.70252282199503"}}, "geometry": {"type": "Point", "coordinates": [-56.675548551726884, -66.83133549288868]}}, {"type": "Feature", "properties": {"norad_id": 27424, "name": "AQUA", "group": "resource", "lat": 47.34742304719039, "lon": -69.66667424305386, "alt_km": 682.9585380751514, "timestamp": "2025-12-04T19:33:59.287860+00:00", "meta": {"OBJECT_NAME": "AQUA", "OBJECT_ID": "2002-022A", "EPOCH": "2025-12-04T08:33:04.320000", "MEAN_MOTION": 14.6177843, "ECCENTRICITY": 7.763e-05, "INCLINATION": 98.4025, "RA_OF_ASC_NODE": 299.0998, "ARG_OF_PERICENTER": 110.2594, "MEAN_ANOMALY": 43.9931, "EPHEMERIS_TYPE": 0, "CLASSIFICATION_TYPE": "U", "NORAD_CAT_ID": 27424, "ELEMENT_SET_NO": 999, "REV_AT_EPOCH": 25480, "BSTAR": 0.00044137996, "MEAN_MOTION_DOT": 2.153e-05, "MEAN_MOTION_DDOT": 0}, "tle": {"line1": "1 27424U 02022A   25338.35630000  .00002153  00000+0  44138-3 0  9996", "line2": "2 27424  98.4025 299.0998 0000776 110.2594  43.9931 14.61778430254806"}}, "geometry": {"type": "Point", "coordinates": [-69.66667424305386, 47.34742304719039]}}, {"type": "Feature", "properties": {"norad_id": 28051, "name": "IRS-P6 (RESOURCESAT-1)", "group": "resource", "lat": -71.90859102091859, "lon": 45.848075537286, "alt_km": 771.9068744830192, "timestamp": "2025-12-04T19:33:59.287870+00:00", "meta": {"OBJECT_NAME": "IRS-P6 (RESOURCESAT-1)", "OBJECT_ID": "2003-046A", "EPOCH": "2025-12-04T07:10:31.128096", "MEAN_MOTION": 14.36068884, "ECCENTRICITY": 0.00637048, "INCLINATION": 98.219, "RA_OF_ASC_NODE": 19.0968, "ARG_OF_PERICENTER": 206.0993, "MEAN_ANOMALY": 291.7501, "EPHEMERIS_TYPE": 0, "CLASSIFICATION_TYPE": "U", "NORAD_CAT_ID": 28051, "ELEMENT_SET_NO": 999, "REV_AT_EPOCH": 15255, "BSTAR": 0.00016848975, "MEAN_MOTION_DOT": 4.6e-06, "MEAN_MOTION_DDOT": 0}, "tle": {"line1": "1 28051U 03046A   25338.29897139  .00000460  00000+0  16849-3 0  9998", "line2": "2 28051  98.2190  19.0968 0063704 206.0993 291.7501 14.36068884152550"}}, "geometry": {"type": "Point", "coordinates": [45.848075537286, -71.90859102091859]}}, {"type": "Feature", "properties": {"norad_id": 28220, "name": "SHIYAN-1 (SY-1)", "group": "resource", "lat": 59.87401244221425, "lon": 26.051814442540042, "alt_km": 474.776183369454, "timestamp": "2025-12-04T19:33:59.287880+00:00", "meta": {"OBJECT_NAME": "SHIYAN-1 (SY-1)", "OBJECT_ID": "2004-012A", "EPOCH": "2025-12-04T03:34:57.718560", "MEAN_MOTION": 15.277959, "ECCENTRICITY": 0.00062597, "INCLINATION": 97.8954, "RA_OF_ASC_NODE": 39.1833, "ARG_OF_PERICENTER": 357.2045, "MEAN_ANOMALY": 2.9157, "EPHEMERIS_TYPE": 0, "CLASSIFICATION_TYPE": "U", "NORAD_CAT_ID": 28220, "ELEMENT_SET_NO": 999, "REV_AT_EPOCH": 18125, "BSTAR": 0.00092340277, "MEAN_MOTION_DOT": 0.00025059, "MEAN_MOTION_DDOT": 0}, "tle": {"line1": "1 28220U 04012A   25338.14927915  .00025059  00000+0  92340-3 0  9991", "line2": "2 28220  97.8954  39.1833 0006259 357.2045   2.9157 15.27795900181259"}}, "geometry": {"type": "Point", "coordinates": [26.051814442540042, 59.87401244221425]}}, {"type": "Feature", "properties": {"norad_id": 28376, "name": "AURA", "group": "resource", "lat": -23.88039064776478, "lon": 105.2922767818151, "alt_km": 696.024653543046, "timestamp": "2025-12-04T19:33:59.287890+00:00", "meta": {"OBJECT_NAME": "AURA", "OBJECT_ID": "2004-026A", "EPOCH": "2025-12-04T07:07:44.594688", "MEAN_MOTION": 14.60916284, "ECCENTRICITY": 0.00010953, "INCLINATION": 98.3172, "RA_OF_ASC_NODE": 288.4852, "ARG_OF_PERICENTER": 91.807, "MEAN_ANOMALY": 268.3256, "EPHEMERIS_TYPE": 0, "CLASSIFICATION_TYPE": "U", "NORAD_CAT_ID": 28376, "ELEMENT_SET_NO": 999, "REV_AT_EPOCH": 13775, "BSTAR": 0.00045745482, "MEAN_MOTION_DOT": 2.192e-05, "MEAN_MOTION_DDOT": 0}, "tle": {"line1": "1 28376U 04026A   25338.29704392  .00002192  00000+0  45745-3 0  9996", "line2": "2 28376  98.3172 288.4852 0001095  91.8070 268.3256 14.60916284137751"}}, "geometry": {"type": "Point", "coordinates": [105.2922767818151, -23.88039064776478]}}]}